STARLINK-3588           
1 51869U 22022T   23340.52535806  .00001384  00000+0  10500-3 0  9997
2 51869  53.2149 108.9368 0001427 102.4706 257.6446 15.08844800 98698
STARLINK-3591           
1 51870U 22022U   23340.79767737  .00000021  00000+0  19413-4 0  9998
2 51870  53.2156 107.7110 0001876 118.6338 241.4843 15.08843288 98789
STARLINK-3567           
1 51871U 22022V   23340.52167626  .00001887  00000+0  13666-3 0  9995
2 51871  53.2158 108.9465 0002305 134.2973 225.8208 15.08837021 98739
STARLINK-3554           
1 51872U 22022W   23340.79400206  .00001893  00000+0  13701-3 0  9996
2 51872  53.2173 107.7325 0001393 102.1904 257.9245 15.08842270 98732
STARLINK-3582           
1 51873U 22022X   23340.77655103  .00000899  00000+0  74551-4 0  9999
2 51873  53.2166 107.8197 0001491  98.9451 261.1710 15.08851720 98735
STARLINK-3574           
1 51874U 22022Y   23340.51799920  .00001085  00000+0  86293-4 0  9992
2 51874  53.2166 108.9715 0000905  73.8570 286.2522 15.08828048 98687
STARLINK-3585           
1 51875U 22022Z   23340.56214794  .00003986  00000+0  26848-3 0  9990
2 51875  53.2160 108.6849 0002411 101.6009 258.5254 15.08825411 98706
STARLINK-3583           
1 51876U 22022AA  23340.51432127  .00001919  00000+0  13861-3 0  9993
2 51876  53.2183 108.9959 0001335  55.2384 304.8734 15.08841294 98694
STARLINK-3556           
1 51877U 22022AB  23340.56307555  .00001224  00000+0  95026-4 0  9998
2 51877  53.2177  98.7707 0001490 105.3976 254.7181 15.08828225 98835
STARLINK-3575           
1 51878U 22022AC  23340.77191777 -.00000307  00000+0 -11641-5 0  9994
2 51878  53.2153 107.8330 0001615  95.7431 264.3745 15.08843476 98738
STARLINK-3572           
1 51879U 22022AD  23340.55572626  .00000057  00000+0  21646-4 0  9992
2 51879  53.2183  98.8069 0001648  55.1655 304.9492 15.08847697 98834
STARLINK-3566           
1 51880U 22022AE  23340.51060843  .00000999  00000+0  80839-4 0  9997
2 51880  53.2186 108.7268 0001298  60.0182 300.0939 15.08847795 98698
STARLINK-3504           
1 51881U 22022AF  23340.54835917 -.00001026  00000+0 -46395-4 0  9996
2 51881  53.2190  98.8419 0001204  86.5642 273.5488 15.08846733 98887
STARLINK-3570           
1 51882U 22022AG  23340.56035647 -.00001209  00000+0 -57830-4 0  9990
2 51882  53.2183  98.7901 0001533 109.8798 250.2360 15.08858903 98884
STARLINK-3576           
1 51883U 22022AH  23340.55941980  .00000631  00000+0  57737-4 0  9998
2 51883  53.2186  98.9721 0001107  93.7741 266.3378 15.08851532 98828
STARLINK-3577           
1 51884U 22022AJ  23340.55203403  .00000414  00000+0  44138-4 0  9990
2 51884  53.2173  98.8175 0002113 123.4472 236.6723 15.08852131 98917
STARLINK-3584           
1 51885U 22022AK  23340.53731199  .00000582  00000+0  54618-4 0  9997
2 51885  53.2206  98.8887 0001150  61.3303 298.7805 15.08843315 98822
STARLINK-3565           
1 51886U 22022AL  23340.54467623  .00000682  00000+0  60903-4 0  9992
2 51886  53.2185  98.8593 0001245  83.7123 276.4011 15.08841336 98830
STARLINK-3551           
1 51887U 22022AM  23341.12980800  .00010094  00000+0  65090-3 0  9994
2 51887  53.2157  96.2223 0001456 102.9902 257.1253 15.08866869 98916
STARLINK-3536           
1 51888U 22022AN  23340.54099439 -.00000650  00000+0 -22767-4 0  9993
2 51888  53.2168  98.8655 0001512 119.9110 240.2033 15.08847976 98836
STARLINK-3547           
1 51889U 22022AP  23340.52260307  .00000454  00000+0  46585-4 0  9990
2 51889  53.2189  98.9556 0001173  68.0547 292.0570 15.08847280 98820
STARLINK-3519           
1 51890U 22022AQ  23340.51712661 -.00013524  00000+0 -81307-3 0  9990
2 51890  53.2167  97.4783 0001855 120.8105 239.3070 15.09723506 98844
STARLINK-3549           
1 51891U 22022AR  23340.51891993 -.00000886  00000+0 -37558-4 0  9994
2 51891  53.2169  98.9713 0001523 109.4621 250.6535 15.08843558 98878
STARLINK-3587           
1 51892U 22022AS  23340.52627383 -.00000620  00000+0 -20876-4 0  9997
2 51892  53.2161  98.9323 0001505 113.8364 246.2786 15.08850098 98822
STARLINK-3579           
1 51893U 22022AT  23340.51155972  .00000773  00000+0  66616-4 0  9996
2 51893  53.2168  98.9997 0001474  94.4564 265.6597 15.08847639 98886
STARLINK-3595           
1 51894U 22022AU  23340.51523697  .00002569  00000+0  17938-3 0  9997
2 51894  53.2175  98.9879 0001227  33.9337 326.1734 15.08849236 98887
STARLINK-3594           
1 51895U 22022AV  23340.77283953 -.00000007  00000+0  17648-4 0  9999
2 51895  53.2162  97.8210 0001894 140.7550 219.3580 15.08836454 98863
STARLINK-3593           
1 51896U 22022AW  23340.52997925  .00001389  00000+0  10533-3 0  9992
2 51896  53.2186  99.1362 0002279 122.1294 237.9919 15.08846338 98875
STARLINK-3598           
1 51897U 22022AX  23340.76915880  .00001752  00000+0  12811-3 0  9994
2 51897  53.2177  97.8430 0001309  91.5817 268.5325 15.08843469 98862
STARLINK-3597           
1 51898U 22022AY  23340.56676249  .00000332  00000+0  38976-4 0  9990
2 51898  53.2185  98.7546 0001295  77.5979 282.5158 15.08839257 98889
2022-023A               
1 51946U 22023A   23341.11957880  .00006208  00000+0  28741-3 0  9996
2 51946  63.4482 168.1106 0080178 326.4326  33.1720 15.18297909 97561
2022-023B               
1 51947U 22023B   23341.11622740  .00015051  00000+0  69014-3 0  9995
2 51947  63.4429 167.8193 0074335 334.9358  24.8152 15.18198328 97563
2022-023C               
1 51948U 22023C   23341.12249128  .00006096  00000+0  28935-3 0  9998
2 51948  63.4514 167.8495 0069501 336.6960  23.1005 15.18162950 97562
2022-023D               
1 51949U 22023D   23341.12638691  .00006109  00000+0  28895-3 0  9996
2 51949  63.4634 168.3895 0071420 338.1347  21.6721 15.18162976 97561
2022-023E               
1 51950U 22023E   23340.57309700 -.01302072  00000+0 -13858+1 0  9993
2 51950  63.4767 206.5438 0079042 346.3123  77.7797 13.76232333 96751
2022-023F               
1 51951U 22023F   23341.12976590  .00006301  00000+0  29548-3 0  9992
2 51951  63.4774 168.4349 0074363 344.2520  15.6280 15.18226531 97565
2022-023G               
1 51952U 22023G   23341.08436505  .00036130  00000+0  56227-3 0  9992
2 51952  63.4277 123.0727 0079232 349.3487  10.5958 15.50110321 98392
NOOR-2                  
1 51954U 22024A   23341.25492341  .00039555  00000+0  72523-3 0  9995
2 51954  58.2769  64.2671 0017557 100.3358 259.9695 15.48856164 97777
STARLINK-3700           
1 51956U 22025A   23340.80229780  .00001149  00000+0  92140-4 0  9999
2 51956  53.0551 125.4744 0001257  93.0660 267.0474 15.08031260 96790
STARLINK-3694           
1 51957U 22025B   23340.45196782  .00001565  00000+0  12913-3 0  9997
2 51957  53.0546 133.3421 0001309  84.0085 276.1052 15.04774639 96652
STARLINK-3692           
1 51958U 22025C   23340.40082659  .00001274  00000+0  10014-3 0  9997
2 51958  53.0553 127.2870 0001049  90.7876 269.3233 15.08037457 96732
STARLINK-3704           
1 51959U 22025D   23340.45977824  .00001304  00000+0  11085-3 0  9993
2 51959  53.0537 133.3223 0001473 103.1579 256.9574 15.04773299 96653
STARLINK-3691           
1 51960U 22025E   23340.45185562  .00000296  00000+0  40211-4 0  9998
2 51960  53.0544 133.3565 0001231  92.2477 267.8652 15.04766948 96650
STARLINK-3689           
1 51961U 22025F   23339.80212161  .00002475  00000+0  17728-3 0  9999
2 51961  53.0557 129.9475 0000981  64.7586 295.3505 15.08027783 96645
STARLINK-3697           
1 51962U 22025G   23340.51091803  .00000029  00000+0  20223-4 0  9996
2 51962  53.0545 126.7045 0001157  84.5399 275.5722 15.08031917 96756
STARLINK-3675           
1 51963U 22025H   23340.85804042  .00000172  00000+0  29407-4 0  9993
2 51963  53.0545 125.2131 0001389  85.0941 275.0207 15.08038255 96804
STARLINK-3690           
1 51964U 22025J   23340.83404529  .00000920  00000+0  77440-4 0  9999
2 51964  53.0533 125.2775 0001588 112.1405 247.9753 15.08041793 96809
STARLINK-3696           
1 51965U 22025K   23340.84732947  .00001573  00000+0  12970-3 0  9990
2 51965  53.0560 131.5895 0001399  89.2462 270.8687 15.04777196 96710
STARLINK-3699           
1 51966U 22025L   23340.80573505 -.00003730  00000+0 -23181-3 0  9995
2 51966  53.0542 129.3842 0002110  83.4705 276.6524 15.06372588 96741
STARLINK-3681           
1 51968U 22025N   23340.82331666  .00000198  00000+0  31053-4 0  9990
2 51968  53.0579 125.3213 0001239 105.8157 254.2970 15.08036263 96805
STARLINK-3680           
1 51969U 22025P   23340.55011413 -.00000846  00000+0 -37900-4 0  9995
2 51969  53.0551 126.3467 0001475  80.1436 279.9720 15.06388057 97868
STARLINK-3677           
1 51970U 22025Q   23340.80203590  .00000330  00000+0  41072-4 0  9995
2 51970  53.0550 129.4772 0001141 100.3380 259.7737 15.06398096 96749
STARLINK-3669           
1 51971U 22025R   23340.83094378 -.00018762  00000+0 -11886-2 0  9999
2 51971  53.0540 125.2792 0001785 118.3089 241.8081 15.08068124 96803
STARLINK-3671           
1 51972U 22025S   23340.45924020  .00000094  00000+0  25234-4 0  9995
2 51972  53.0548 130.9925 0001687 104.8949 255.2227 15.06397697 96695
STARLINK-3679           
1 51973U 22025T   23340.86468344  .00001207  00000+0  99889-4 0  9997
2 51973  53.0537 129.1207 0001260  86.4570 273.6563 15.06405060 96757
STARLINK-3672           
1 51974U 22025U   23340.45556047  .00003416  00000+0  24812-3 0  9998
2 51974  53.0570 131.0109 0001062  93.3364 266.7746 15.06401222 97771
STARLINK-3674           
1 51975U 22025V   23340.80539594 -.00000194  00000+0  58831-5 0  9997
2 51975  53.0539 125.3976 0001309 108.9798 251.1333 15.06408469 96806
STARLINK-3663           
1 51976U 22025W   23340.84000717  .00001631  00000+0  12052-3 0  9991
2 51976  53.2168 137.3508 0001346  88.8313 271.2833 15.08848392 96691
STARLINK-3660           
1 51977U 22025X   23340.39291427  .00003547  00000+0  24076-3 0  9999
2 51977  53.2145 119.5435 0001506 100.2013 259.9149 15.08849215 96892
